NORAD_CAT_ID,OBJECT_NAME,OBJECT_TYPE,EPOCH,MEAN_MOTION,ECCENTRICITY,INCLINATION,RA_OF_ASC_NODE,ARG_OF_PERICENTER,MEAN_ANOMALY,BSTAR,MEAN_MOTION_DOT,MEAN_MOTION_DDOT,TLE_LINE0,TLE_LINE1,TLE_LINE2,SEMIMAJOR_AXIS,PERIOD,APOGEE,PERIGEE,DECAYED
52107.0,STARLINK-3658,PAYLOAD,2024-02-12 21:26:28,15.08836944,0.0001357,53.2166,232.0175,98.8219,261.2927,6.6676e-05,7.73e-06,0.0,0 STARLINK-3658,1 52107U 22029V   24043.89339111  .00000773  00000-0  66676-4 0  9990,2 52107  53.2166 232.0175 0001357  98.8219 261.2927 15.08836944106681,6917.89,95.438,540.693,538.816,0.0
52107.0,STARLINK-3658,PAYLOAD,2024-02-13 21:17:16,15.0883903,0.0001374,53.2168,227.555,96.6552,263.4596,7.162e-05,8.52e-06,0.0,0 STARLINK-3658,1 52107U 22029V   24044.88699408  .00000852  00000-0  71620-4 0  9991,2 52107  53.2168 227.5550 0001374  96.6552 263.4596 15.08839030106836,6917.883,95.438,540.699,538.798,0.0
52107.0,STARLINK-3658,PAYLOAD,2024-02-14 11:35:44,15.08842892,0.0001362,53.2168,224.8799,90.6963,269.4185,9.7963e-05,1.272e-05,0.0,0 STARLINK-3658,1 52107U 22029V   24045.48315186  .00001272  00000-0  97963-4 0  9991,2 52107  53.2168 224.8799 0001362  90.6963 269.4185 15.08842892106928,6917.872,95.437,540.679,538.794,0.0
52107.0,STARLINK-3658,PAYLOAD,2024-02-14 17:57:16,15.08849903,0.0001294,53.216,223.6923,87.5245,272.5895,0.00014827,2.073e-05,0.0,0 STARLINK-3658,1 52107U 22029V   24045.74810568  .00002073  00000-0  14827-3 0  9991,2 52107  53.2160 223.6923 0001294  87.5245 272.5895 15.08849903106965,6917.85,95.437,540.61,538.82,0.0
52107.0,STARLINK-3658,PAYLOAD,2024-02-15 17:48:04,15.08839932,0.0001228,53.2152,219.2332,82.3372,277.776,3.9296e-05,3.38e-06,0.0,0 STARLINK-3658,1 52107U 22029V   24046.74171499  .00000338  00000-0  39296-4 0  9995,2 52107  53.2152 219.2332 0001228  82.3372 277.7760 15.08839932107119,6917.881,95.438,540.595,538.896,0.0
52107.0,STARLINK-3658,PAYLOAD,2024-02-16 11:17:18,15.08843169,0.0001305,53.2148,215.9624,81.4949,278.6191,-5.1075e-07,-2.96e-06,0.0,0 STARLINK-3658,1 52107U 22029V   24047.47035287 -.00000296  00000-0 -51075-6 0  9996,2 52107  53.2148 215.9624 0001305  81.4949 278.6191 15.08843169107224,6917.871,95.437,540.638,538.833,0.0
52107.0,STARLINK-3658,PAYLOAD,2024-02-16 20:49:36,15.08849046,0.0001431,53.2154,214.1769,91.3146,268.801,8.3523e-05,1.042e-05,0.0,0 STARLINK-3658,1 52107U 22029V   24047.86778467  .00001042  00000-0  83523-4 0  9992,2 52107  53.2154 214.1769 0001431  91.3146 268.8010 15.08849046107288,6917.853,95.437,540.708,538.728,0.0
52107.0,STARLINK-3658,PAYLOAD,2024-02-17 11:08:05,15.08833654,0.0001568,53.2165,211.4975,95.3525,264.7646,3.2433e-05,2.28e-06,0.0,0 STARLINK-3658,1 52107U 22029V   24048.46395656  .00000228  00000-0  32433-4 0  9993,2 52107  53.2165 211.4975 0001568  95.3525 264.7646 15.08833654107373,6917.9,95.438,540.85,538.68,0.0
52107.0,STARLINK-3658,PAYLOAD,2024-02-17 14:18:52,15.08834413,0.0001442,53.2168,210.9068,86.9328,273.183,5.2184e-05,5.43e-06,0.0,0 STARLINK-3658,1 52107U 22029V   24048.59643595  .00000543  00000-0  52184-4 0  9990,2 52107  53.2168 210.9068 0001442  86.9328 273.1830 15.08834413107396,6917.897,95.438,540.76,538.765,0.0
52107.0,STARLINK-3658,PAYLOAD,2024-02-17 17:29:38,15.08837365,0.0001541,53.2169,210.3102,92.7332,267.3837,4.8423e-05,4.83e-06,0.0,0 STARLINK-3658,1 52107U 22029V   24048.72891419  .00000483  00000-0  48423-4 0  9999,2 52107  53.2169 210.3102 0001541  92.7332 267.3837 15.08837365107414,6917.888,95.438,540.819,538.687,0.0
52107.0,STARLINK-3658,PAYLOAD,2024-02-18 14:09:38,15.08841817,0.0001456,53.2171,206.4461,90.1269,269.989,3.7933e-05,3.16e-06,0.0,0 STARLINK-3658,1 52107U 22029V   24049.59003314  .00000316  00000-0  37933-4 0  9993,2 52107  53.2171 206.4461 0001456  90.1269 269.9890 15.08841817107545,6917.875,95.437,540.747,538.733,0.0
52107.0,STARLINK-3658,PAYLOAD,2024-02-18 17:20:24,15.08846081,0.0001383,53.2169,205.8519,89.9657,270.1494,7.7262e-05,9.42e-06,0.0,0 STARLINK-3658,1 52107U 22029V   24049.72250921  .00000942  00000-0  77262-4 0  9990,2 52107  53.2169 205.8519 0001383  89.9657 270.1494 15.08846081107569,6917.862,95.437,540.684,538.77,0.0
52107.0,STARLINK-3658,PAYLOAD,2024-02-19 10:49:40,15.08833654,0.000147,53.218,202.5827,96.6915,263.4244,3.5167e-05,2.72e-06,0.0,0 STARLINK-3658,1 52107U 22029V   24050.45115953  .00000272  00000-0  35167-4 0  9991,2 52107  53.2180 202.5827 0001470  96.6915 263.4244 15.08833654107679,6917.9,95.438,540.782,538.748,0.0
52107.0,STARLINK-3658,PAYLOAD,2024-02-19 14:00:26,15.08833824,0.0001493,53.2182,201.9882,98.3379,261.7783,3.3527e-05,2.46e-06,0.0,0 STARLINK-3658,1 52107U 22029V   24050.58363985  .00000246  00000-0  33527-4 0  9994,2 52107  53.2182 201.9882 0001493  98.3379 261.7783 15.08833824107693,6917.899,95.438,540.797,538.731,0.0
52107.0,STARLINK-3658,PAYLOAD,2024-02-19 17:11:12,15.08835709,0.0001509,53.2184,201.3935,98.7415,261.3748,4.5793e-05,4.41e-06,0.0,0 STARLINK-3658,1 52107U 22029V   24050.71611868  .00000441  00000-0  45793-4 0  9990,2 52107  53.2184 201.3935 0001509  98.7415 261.3748 15.08835709107715,6917.894,95.438,540.802,538.715,0.0
52107.0,STARLINK-3658,PAYLOAD,2024-02-20 13:51:13,15.08834503,0.0001514,53.2187,197.5273,107.2512,252.8646,-2.9495e-05,-7.57e-06,0.0,0 STARLINK-3658,1 52107U 22029V   24051.57724386 -.00000757  00000-0 -29495-4 0  9998,2 52107  53.2187 197.5273 0001514 107.2512 252.8646 15.08834503107846,6917.897,95.438,540.81,538.715,0.0
52107.0,STARLINK-3658,PAYLOAD,2024-02-20 18:37:22,15.08840401,0.0001503,53.2182,196.6339,90.8363,269.2802,6.4565e-06,-1.85e-06,0.0,0 STARLINK-3658,1 52107U 22029V   24051.77595997 -.00000185  00000-0  64565-5 0  9996,2 52107  53.2182 196.6339 0001503  90.8363 269.2802 15.08840401107876,6917.879,95.438,540.784,538.704,0.0
52107.0,STARLINK-3658,PAYLOAD,2024-02-21 13:42:00,15.08834707,0.0001603,53.2189,193.0651,91.3308,268.7867,6.8223e-05,7.98e-06,0.0,0 STARLINK-3658,1 52107U 22029V   24052.57084384  .00000798  00000-0  68223-4 0  9991,2 52107  53.2189 193.0651 0001603  91.3308 268.7867 15.08834707107997,6917.897,95.438,540.871,538.653,0.0
52107.0,STARLINK-3658,PAYLOAD,2024-02-21 16:52:46,15.08838957,0.000147,53.2181,192.4688,90.71,269.4061,7.1847e-05,8.56e-06,0.0,0 STARLINK-3658,1 52107U 22029V   24052.70332102  .00000856  00000-0  71847-4 0  9991,2 52107  53.2181 192.4688 0001470  90.7100 269.4061 15.08838957108016,6917.884,95.438,540.766,538.732,0.0
52107.0,STARLINK-3658,PAYLOAD,2024-02-22 08:46:38,15.08838278,0.0001577,53.2171,189.4984,75.3512,284.7654,0.00011148,1.487e-05,0.0,0 STARLINK-3658,1 52107U 22029V   24053.36572190  .00001487  00000-0  11148-3 0  9995,2 52107  53.2171 189.4984 0001577  75.3512 284.7654 15.08838278108119,6917.886,95.438,540.842,538.66,0.0
52107.0,STARLINK-3658,PAYLOAD,2024-02-22 15:08:10,15.08840322,0.0001419,53.2174,188.3087,92.2635,267.852,0.00011559,1.552e-05,0.0,0 STARLINK-3658,1 52107U 22029V   24053.63067951  .00001552  00000-0  11559-3 0  9998,2 52107  53.2174 188.3087 0001419  92.2635 267.8520 15.08840322108154,6917.879,95.438,540.726,538.763,0.0
52107.0,STARLINK-3658,PAYLOAD,2024-02-22 16:43:33,15.08845818,0.0001348,53.2171,188.0112,91.864,268.2506,9.8153e-05,1.275e-05,0.0,0 STARLINK-3658,1 52107U 22029V   24053.69691657  .00001275  00000-0  98153-4 0  9998,2 52107  53.2171 188.0112 0001348  91.8640 268.2506 15.08845818108164,6917.863,95.437,540.66,538.795,0.0
52107.0,STARLINK-3658,PAYLOAD,2024-02-23 14:58:57,15.08844631,0.0001477,53.2175,183.8484,81.6028,278.5132,3.4474e-05,2.61e-06,0.0,0 STARLINK-3658,1 52107U 22029V   24054.62427910  .00000261  00000-0  34474-4 0  9991,2 52107  53.2175 183.8484 0001477  81.6028 278.5132 15.08844631108300,6917.866,95.437,540.753,538.709,0.0
52107.0,STARLINK-3658,PAYLOAD,2024-02-24 11:38:58,15.08839958,0.0001413,53.2172,179.9811,91.4245,268.6909,-9.1636e-06,-4.34e-06,0.0,0 STARLINK-3658,1 52107U 22029V   24055.48540228 -.00000434  00000-0 -91636-5 0  9992,2 52107  53.2172 179.9811 0001413  91.4245 268.6909 15.08839958108439,6917.881,95.438,540.723,538.768,0.0
52107.0,STARLINK-3658,PAYLOAD,2024-02-24 14:49:44,15.08841543,0.0001438,53.2169,179.3852,97.0305,263.085,1.4248e-05,-6.1e-07,0.0,0 STARLINK-3658,1 52107U 22029V   24055.61788019 -.00000061  00000-0  14248-4 0  9997,2 52107  53.2169 179.3852 0001438  97.0305 263.0850 15.08841543108459,6917.876,95.437,540.735,538.746,0.0
52107.0,STARLINK-3658,PAYLOAD,2024-02-25 14:40:31,15.08842799,0.0001521,53.2168,174.9234,89.4636,270.6531,6.847e-05,8.02e-06,0.0,0 STARLINK-3658,1 52107U 22029V   24056.61147756  .00000802  00000-0  68470-4 0  9993,2 52107  53.2168 174.9234 0001521  89.4636 270.6531 15.08842799108609,6917.872,95.437,540.789,538.685,0.0
52107.0,STARLINK-3658,PAYLOAD,2024-02-25 17:51:17,15.08846979,0.0001489,53.2164,174.3268,89.7959,270.3204,7.7587e-05,9.47e-06,0.0,0 STARLINK-3658,1 52107U 22029V   24056.74395425  .00000947  00000-0  77587-4 0  9994,2 52107  53.2164 174.3268 0001489  89.7959 270.3204 15.08846979108620,6917.859,95.437,540.754,538.694,0.0
52107.0,STARLINK-3658,PAYLOAD,2024-02-26 00:12:50,15.08841671,0.000146,53.2163,173.1362,79.7655,280.3502,8.9018e-05,1.129e-05,0.0,0 STARLINK-3658,1 52107U 22029V   24057.00891764  .00001129  00000-0  89018-4 0  9996,2 52107  53.2163 173.1362 0001460  79.7655 280.3502 15.08841671108662,6917.875,95.437,540.75,538.73,0.0
52107.0,STARLINK-3658,PAYLOAD,2024-02-26 14:31:18,15.08841689,0.0001379,53.217,170.4633,88.6908,271.4242,6.2452e-05,7.06e-06,0.0,0 STARLINK-3658,1 52107U 22029V   24057.60507880  .00000706  00000-0  62452-4 0  9998,2 52107  53.2170 170.4633 0001379  88.6908 271.4242 15.08841689108751,6917.875,95.437,540.694,538.786,0.0
52107.0,STARLINK-3658,PAYLOAD,2024-02-27 11:11:20,15.08837078,0.0001485,53.2172,166.5969,93.6983,266.4179,-8.8769e-05,-1.7e-05,0.0,0 STARLINK-3658,1 52107U 22029V   24058.46620988 -.00001700  00000-0 -88769-4 0  9994,2 52107  53.2172 166.5969 0001485  93.6983 266.4179 15.08837078108882,6917.889,95.438,540.782,538.727,0.0
